OBJECT_NAME,OBJECT_ID,EPOCH,MEAN_MOTION,ECCENTRICITY,INCLINATION,RA_OF_ASC_NODE,ARG_OF_PERICENTER,MEAN_ANOMALY,EPHEMERIS_TYPE,CLASSIFICATION_TYPE,NORAD_CAT_ID,ELEMENT_SET_NO,REV_AT_EPOCH,BSTAR,MEAN_MOTION_DOT,MEAN_MOTION_DDOT
GSAT0225 (GALILEO 29),2024-079A,2026-07-12T22:10:02.693856,1.70473595,.00005761,55.1342,100.3610,333.1665,207.5558,0,U,59598,999,1375,0,-.32E-6,0
GSAT0227 (GALILEO 30),2024-079C,2026-07-11T01:16:08.747328,1.70473759,.00027807,55.1286,100.4115,67.2139,292.8235,0,U,59600,999,1377,0,-.27E-6,0
GSAT0232 (GALILEO 32),2024-167A,2026-07-13T03:58:19.942176,1.70473982,.00064915,55.1798,220.6008,230.8741,201.3532,0,U,61182,999,1132,0,.78E-6,0
GSAT0226 (GALILEO 31),2024-167B,2026-07-12T07:31:49.345248,1.70473923,.00032197,55.1789,220.6314,234.7446,126.0816,0,U,61183,999,1128,0,.85E-6,0
BEIDOU-3 M25 (C47),2024-168B,2026-07-13T07:44:13.892928,1.86229790,.0003287,54.4484,301.3340,291.8212,128.4471,0,U,61186,999,1227,0,-.66E-6,0
BEIDOU-3 M27 (C49),2024-168C,2026-07-12T10:33:58.218624,1.86229847,.0000941,54.4448,301.3475,49.1078,274.7757,0,U,61187,999,972,0,-.66E-6,0
GPS BIII-7  (PRN 01),2024-242A,2026-07-13T06:23:20.396256,2.00571836,.0017816,54.8371,333.1245,4.0177,356.1264,0,U,62339,999,1177,0,-.93E-6,0
QZS-6 (QZSS/PRN 200),2025-023A,2026-07-13T10:28:23.702880,1.00267398,.0001781,0.0132,343.7815,148.6981,46.3835,0,U,62876,999,521,0,-.235E-5,0
COSMOS 2584 (704K),2025-042A,2026-07-08T06:09:53.154144,2.13103813,.00057482,65.0959,72.0857,218.1439,141.8762,0,U,63130,999,1049,0,-.24E-6,0
GPS BIII-8  (PRN 21),2025-116A,2026-07-13T00:15:06.322176,2.00573754,.00084265,55.2507,30.0921,339.5613,19.0492,0,U,64202,999,838,0,-.59E-6,0
COSMOS 2596 (708K),2025-206B,2026-07-13T08:02:05.138880,2.13100618,.0011127,64.6178,314.0753,307.7533,103.9433,0,U,65590,999,647,0,-.64E-6,0
GSAT0233 (GALILEO 33),2025-302A,2026-07-11T20:36:58.586688,1.70473765,.00008449,54.3485,101.4284,163.0788,15.1640,0,U,67160,999,354,0,-.3E-6,0
GSAT0234 (GALILEO 34),2025-302C,2026-07-11T13:23:12.801120,1.70473738,.0002156,54.3508,101.4360,317.4765,216.0018,0,U,67162,999,359,0,-.3E-6,0
GPS BIII-9  (PRN 20),2026-017A,2026-07-13T02:56:26.877120,2.00570504,.0021567,55.1047,87.7143,259.9513,99.8468,0,U,67588,999,43213,0,-.33E-6,0
GPS BIII-10 (PRN 13),2026-087A,2026-07-11T20:18:18.187776,2.00572252,.00205007,54.9620,206.8126,106.4580,257.2895,0,U,68791,999,133,0,.101E-5,0
